start=new Date('2021-10-24T00:00:00.000Z').valueOf();
sats=[{"APOAPSIS":"548.905","FILE":"3181152","ELEMENT_SET_NO":"999","OBJECT_NAME":"STARLINK-2294","ARG_OF_PERICENTER":"53.0970","SITE":"AFETR","MEAN_MOTION_DDOT":"0.0000000000000","MEAN_MOTION":"15.06424185","OBJECT_ID":"2021-024AV","DECAY_DATE":null,"TIME_SYSTEM":"UTC","BSTAR":"-0.00184190000000","GP_ID":"188025106","REF_FRAME":"TEME","MEAN_ANOMALY":"184.7194","NORAD_CAT_ID":"48020","COUNTRY_CODE":"US","CENTER_NAME":"EARTH","CLASSIFICATION_TYPE":"U","INCLINATION":"53.0538","EPHEMERIS_TYPE":"0","PERIOD":"95.591","RA_OF_ASC_NODE":"238.9114","TLE_LINE1":"1 48020U 21024AV  21297.00002315 -.00027631  00000-0 -18419-2 0  9991","ECCENTRICITY":"0.00025490","RCS_SIZE":"LARGE","SEMIMAJOR_AXIS":"6925.274","LAUNCH_DATE":"2021-03-24","MEAN_ELEMENT_THEORY":"SGP4","PERIAPSIS":"545.374","REV_AT_EPOCH":"360","OBJECT_TYPE":"PAYLOAD","MEAN_MOTION_DOT":"-0.00027631","EPOCH":"2021-10-24T00:00:02.000160","TLE_LINE2":"2 48020  53.0538 238.9114 0002549  53.0970 184.7194 15.06424185  3601"},{"SITE":"AFETR","ARG_OF_PERICENTER":"61.7069","OBJECT_NAME":"STARLINK-2301","FILE":"3181152","ELEMENT_SET_NO":"999","APOAPSIS":"548.752","TIME_SYSTEM":"UTC","DECAY_DATE":null,"OBJECT_ID":"2021-024AW","MEAN_MOTION":"15.06401847","MEAN_MOTION_DDOT":"0.0000000000000","COUNTRY_CODE":"US","MEAN_ANOMALY":"298.4145","NORAD_CAT_ID":"48021","REF_FRAME":"TEME","GP_ID":"188023854","BSTAR":"0.00009109500000","EPHEMERIS_TYPE":"0","INCLINATION":"53.0543","CLASSIFICATION_TYPE":"U","CENTER_NAME":"EARTH","PERIOD":"95.592","RCS_SIZE":"LARGE","ECCENTRICITY":"0.00022290","SEMIMAJOR_AXIS":"6925.343","TLE_LINE1":"1 48021U 21024AW  21296.67471851  .00001075  00000-0  91095-4 0  9994","RA_OF_ASC_NODE":"245.3702","REV_AT_EPOCH":"3456","PERIAPSIS":"545.664","MEAN_ELEMENT_THEORY":"SGP4","LAUNCH_DATE":"2021-03-24","TLE_LINE2":"2 48021  53.0543 245.3702 0002229  61.7069 298.4145 15.06401847 34561","EPOCH":"2021-10-23T16:11:35.679264","MEAN_MOTION_DOT":"0.00001075","OBJECT_TYPE":"PAYLOAD"},{"ARG_OF_PERICENTER":"76.7767","SITE":"AFETR","APOAPSIS":"548.154","FILE":"3181152","ELEMENT_SET_NO":"999","OBJECT_NAME":"STARLINK-2298","TIME_SYSTEM":"UTC","MEAN_MOTION_DDOT":"0.0000000000000","MEAN_MOTION":"15.06392440","OBJECT_ID":"2021-024AX","DECAY_DATE":null,"MEAN_ANOMALY":"283.3369","NORAD_CAT_ID":"48022","COUNTRY_CODE":"US","BSTAR":"0.00009030100000","REF_FRAME":"TEME","GP_ID":"188024104","EPHEMERIS_TYPE":"0","CENTER_NAME":"EARTH","CLASSIFICATION_TYPE":"U","INCLINATION":"53.0546","PERIOD":"95.593","TLE_LINE1":"1 48022U 21024AX  21296.74198095  .00001064  00000-0  90301-4 0  9996","RCS_SIZE":"LARGE","SEMIMAJOR_AXIS":"6925.372","ECCENTRICITY":"0.00013250","RA_OF_ASC_NODE":"305.0902","LAUNCH_DATE":"2021-03-24","PERIAPSIS":"546.319","MEAN_ELEMENT_THEORY":"SGP4","REV_AT_EPOCH":"3378","EPOCH":"2021-10-23T17:48:27.154080","TLE_LINE2":"2 48022  53.0546 305.0902 0001325  76.7767 283.3369 15.06392440 33780","OBJECT_TYPE":"PAYLOAD","MEAN_MOTION_DOT":"0.00001064"},{"REV_AT_EPOCH":"3374","MEAN_ELEMENT_THEORY":"SGP4","PERIAPSIS":"546.193","LAUNCH_DATE":"2021-03-24","MEAN_MOTION_DOT":"0.00001391","OBJECT_TYPE":"PAYLOAD","TLE_LINE2":"2 48023  53.0552 306.1952 0001510  74.7425 285.3731 15.06391700 33749","EPOCH":"2021-10-23T11:48:53.634816","PERIOD":"95.593","RA_OF_ASC_NODE":"306.1952","RCS_SIZE":"LARGE","SEMIMAJOR_AXIS":"6925.374","ECCENTRICITY":"0.00015100","TLE_LINE1":"1 48023U 21024AY  21296.49228744  .00001391  00000-0  11228-3 0  9997","GP_ID":"188024856","REF_FRAME":"TEME","BSTAR":"0.00011228000000","COUNTRY_CODE":"US","MEAN_ANOMALY":"285.3731","NORAD_CAT_ID":"48023","INCLINATION":"53.0552","CLASSIFICATION_TYPE":"U","CENTER_NAME":"EARTH","EPHEMERIS_TYPE":"0","OBJECT_NAME":"STARLINK-2292","FILE":"3181152","APOAPSIS":"548.285","ELEMENT_SET_NO":"999","SITE":"AFETR","ARG_OF_PERICENTER":"74.7425","DECAY_DATE":null,"OBJECT_ID":"2021-024AY","MEAN_MOTION":"15.06391700","MEAN_MOTION_DDOT":"0.0000000000000","TIME_SYSTEM":"UTC"},{"REV_AT_EPOCH":"370","MEAN_ELEMENT_THEORY":"SGP4","PERIAPSIS":"344.256","LAUNCH_DATE":"2021-03-24","MEAN_MOTION_DOT":"-0.00093836","OBJECT_TYPE":"PAYLOAD","TLE_LINE2":"2 48024  53.0437 222.4654 0007968 294.9506 194.5496 15.73250314  3701","EPOCH":"2021-10-24T00:00:02.000160","PERIOD":"91.530","RA_OF_ASC_NODE":"222.4654","RCS_SIZE":"LARGE","SEMIMAJOR_AXIS":"6727.752","ECCENTRICITY":"0.00079680","TLE_LINE1":"1 48024U 21024AZ  21297.00002315 -.00093836  00000-0 -66852-3 0  9990","GP_ID":"188025606","REF_FRAME":"TEME","BSTAR":"-0.00066852000000","COUNTRY_CODE":"US","MEAN_ANOMALY":"194.5496","NORAD_CAT_ID":"48024","INCLINATION":"53.0437","CLASSIFICATION_TYPE":"U","CENTER_NAME":"EARTH","EPHEMERIS_TYPE":"0","OBJECT_NAME":"STARLINK-2302","FILE":"3181152","ELEMENT_SET_NO":"999","APOAPSIS":"354.977","ARG_OF_PERICENTER":"294.9506","SITE":"AFETR","DECAY_DATE":null,"OBJECT_ID":"2021-024AZ","MEAN_MOTION":"15.73250314","MEAN_MOTION_DDOT":"0.0000000000000","TIME_SYSTEM":"UTC"},{"REV_AT_EPOCH":"370","LAUNCH_DATE":"2021-03-24","PERIAPSIS":"347.698","MEAN_ELEMENT_THEORY":"SGP4","TLE_LINE2":"2 48025  53.0434 222.4587 0002924   9.5684 120.5291 15.73233219  3705","EPOCH":"2021-10-24T00:00:02.000160","OBJECT_TYPE":"PAYLOAD","MEAN_MOTION_DOT":"-0.00065857","PERIOD":"91.531","ECCENTRICITY":"0.00029240","RCS_SIZE":"LARGE","SEMIMAJOR_AXIS":"6727.800","TLE_LINE1":"1 48025U 21024BA  21297.00002315 -.00065857  00000-0 -46759-3 0  9997","RA_OF_ASC_NODE":"222.4587","COUNTRY_CODE":"US","NORAD_CAT_ID":"48025","MEAN_ANOMALY":"120.5291","REF_FRAME":"TEME","GP_ID":"188024354","BSTAR":"-0.00046759000000","EPHEMERIS_TYPE":"0","CLASSIFICATION_TYPE":"U","INCLINATION":"53.0434","CENTER_NAME":"EARTH","ARG_OF_PERICENTER":"9.5684","SITE":"AFETR","FILE":"3181152","ELEMENT_SET_NO":"999","APOAPSIS":"351.633","OBJECT_NAME":"STARLINK-2318","TIME_SYSTEM":"UTC","OBJECT_ID":"2021-024BA","DECAY_DATE":null,"MEAN_MOTION_DDOT":"0.0000000000000","MEAN_MOTION":"15.73233219"},{"PERIOD":"95.593","RA_OF_ASC_NODE":"310.2639","TLE_LINE1":"1 48026U 21024BB  21296.73691435 -.00000829  00000-0 -36756-4 0  9999","ECCENTRICITY":"0.00011790","RCS_SIZE":"LARGE","SEMIMAJOR_AXIS":"6925.381","LAUNCH_DATE":"2021-03-24","PERIAPSIS":"546.429","MEAN_ELEMENT_THEORY":"SGP4","REV_AT_EPOCH":"3365","OBJECT_TYPE":"PAYLOAD","MEAN_MOTION_DOT":"-0.00000829","EPOCH":"2021-10-23T17:41:09.399840","TLE_LINE2":"2 48026  53.0236 310.2639 0001179  82.5905 277.5217 15.06389574 33658","ELEMENT_SET_NO":"999","FILE":"3181152","APOAPSIS":"548.062","OBJECT_NAME":"STARLINK-2278","ARG_OF_PERICENTER":"82.5905","SITE":"AFETR","MEAN_MOTION_DDOT":"0.0000000000000","MEAN_MOTION":"15.06389574","OBJECT_ID":"2021-024BB","DECAY_DATE":null,"TIME_SYSTEM":"UTC","BSTAR":"-0.00003675600000","GP_ID":"188024604","REF_FRAME":"TEME","MEAN_ANOMALY":"277.5217","NORAD_CAT_ID":"48026","COUNTRY_CODE":"US","CENTER_NAME":"EARTH","CLASSIFICATION_TYPE":"U","INCLINATION":"53.0236","EPHEMERIS_TYPE":"0"},{"TLE_LINE2":"2 48027  53.0554 285.2820 0001537  69.5164 290.5989 15.06391889 33995","EPOCH":"2021-10-23T16:43:26.637312","MEAN_MOTION_DOT":"-0.00000713","OBJECT_TYPE":"PAYLOAD","REV_AT_EPOCH":"3399","MEAN_ELEMENT_THEORY":"SGP4","PERIAPSIS":"546.174","LAUNCH_DATE":"2021-03-24","SEMIMAJOR_AXIS":"6925.373","RCS_SIZE":"LARGE","ECCENTRICITY":"0.00015370","TLE_LINE1":"1 48027U 21024BC  21296.69683608 -.00000713  00000-0 -28983-4 0  9993","RA_OF_ASC_NODE":"285.2820","PERIOD":"95.593","EPHEMERIS_TYPE":"0","INCLINATION":"53.0554","CLASSIFICATION_TYPE":"U","CENTER_NAME":"EARTH","COUNTRY_CODE":"US","MEAN_ANOMALY":"290.5989","NORAD_CAT_ID":"48027","REF_FRAME":"TEME","GP_ID":"188025356","BSTAR":"-0.00002898300000","TIME_SYSTEM":"UTC","DECAY_DATE":null,"OBJECT_ID":"2021-024BC","MEAN_MOTION":"15.06391889","MEAN_MOTION_DDOT":"0.0000000000000","ARG_OF_PERICENTER":"69.5164","SITE":"AFETR","OBJECT_NAME":"STARLINK-2300","FILE":"3181152","APOAPSIS":"548.303","ELEMENT_SET_NO":"999"},{"MEAN_ELEMENT_THEORY":"SGP4","PERIAPSIS":"545.282","LAUNCH_DATE":"2021-03-24","REV_AT_EPOCH":"360","EPOCH":"2021-10-24T00:00:02.000160","TLE_LINE2":"2 48028  53.0551 238.9104 0002722  56.8555  80.9297 15.06415143  3601","MEAN_MOTION_DOT":"-0.00028986","OBJECT_TYPE":"PAYLOAD","PERIOD":"95.591","TLE_LINE1":"1 48028U 21024BD  21297.00002315 -.00028986  00000-0 -19340-2 0  9997","ECCENTRICITY":"0.00027220","RCS_SIZE":"LARGE","SEMIMAJOR_AXIS":"6925.302","RA_OF_ASC_NODE":"238.9104","NORAD_CAT_ID":"48028","MEAN_ANOMALY":"80.9297","COUNTRY_CODE":"US","BSTAR":"-0.00193400000000","REF_FRAME":"TEME","GP_ID":"188025107","EPHEMERIS_TYPE":"0","CENTER_NAME":"EARTH","INCLINATION":"53.0551","CLASSIFICATION_TYPE":"U","ARG_OF_PERICENTER":"56.8555","SITE":"AFETR","OBJECT_NAME":"STARLINK-2264","ELEMENT_SET_NO":"999","FILE":"3181152","APOAPSIS":"549.052","TIME_SYSTEM":"UTC","MEAN_MOTION":"15.06415143","MEAN_MOTION_DDOT":"0.0000000000000","DECAY_DATE":null,"OBJECT_ID":"2021-024BD"},{"REV_AT_EPOCH":"3379","LAUNCH_DATE":"2021-03-24","MEAN_ELEMENT_THEORY":"SGP4","PERIAPSIS":"546.232","TLE_LINE2":"2 48029  53.0566 304.8220 0001413  81.0228 279.0921 15.06401030 33791","EPOCH":"2021-10-23T19:14:42.585792","OBJECT_TYPE":"PAYLOAD","MEAN_MOTION_DOT":"0.00001286","PERIOD":"95.592","RCS_SIZE":"LARGE","ECCENTRICITY":"0.00014130","SEMIMAJOR_AXIS":"6925.345","TLE_LINE1":"1 48029U 21024BE  21296.80188178  .00001286  00000-0  10519-3 0  9999","RA_OF_ASC_NODE":"304.8220","COUNTRY_CODE":"US","NORAD_CAT_ID":"48029","MEAN_ANOMALY":"279.0921","REF_FRAME":"TEME","GP_ID":"188023855","BSTAR":"0.00010519000000","EPHEMERIS_TYPE":"0","CLASSIFICATION_TYPE":"U","INCLINATION":"53.0566","CENTER_NAME":"EARTH","SITE":"AFETR","ARG_OF_PERICENTER":"81.0228","FILE":"3181152","ELEMENT_SET_NO":"999","APOAPSIS":"548.189","OBJECT_NAME":"STARLINK-2299","TIME_SYSTEM":"UTC","OBJECT_ID":"2021-024BE","DECAY_DATE":null,"MEAN_MOTION_DDOT":"0.0000000000000","MEAN_MOTION":"15.06401030"}];
